Company Name,Type,AI Check,Signed Check,Deals Check,Zip Code,Phone,Website,Source,Ryan,Alyssa 2,Alyssa R,Gabe,Jacob,Rachel,Colin,Notes,Address
,,,,,,,,,,,,,,,,,"New York, NY, USA"
787 Coffee,BB2,787,No,No,10009.0,,http://787coffee.com/,NYC Hitlist,0.0,0,1.0,1.0,0.0,1.0,1.0,Multiple Locations,"131 E 7th St, New York, NY 10009, USA"
Oslo Coffee Roasters,BB2,Oslo,No,No,10014.0,,https://oslocoffee.com/,New York Hitlist,0.0,0,0.0,1.0,0.0,1.0,1.0,,"Oslo Coffee Roasters, Brooklyn, NY 11211, USA"
Magnolia Bakery,BB2,Magnolia Bakery,No,No,10014.0,(212) 462-2572,http://www.magnoliabakery.com/,Eater,0.0,0,0.0,0.0,0.0,1.0,1.0,,"New York, NY, USA"
Somtum Der,BB2,Somtum Der,No,No,10009.0,,http://www.somtumdernewyork.com/,NYC Hitlist,0.0,0,0.0,0.0,1.0,0.0,1.0,,"85 Avenue A, New York, NY 10009, USA"
Cafe Spaghetti,BB1,Cafe Spaghetti,No,Yes,11231.0,Not Available,https://www.cafespaghetti.com/,Eater,0.0,0,0.0,0.0,1.0,0.0,1.0,,"126 Union St, Brooklyn, NY 11231, USA"
Cafe Mogador,BB2,Cafe Mogador,No,Yes,10009.0,Not Available,http://www.cafemogador.com/,Eater,0.0,0,0.0,1.0,0.0,0.0,1.0,,"101 St Marks Pl, New York, NY 10009, USA"
Chino Grande,BB2,Chino Grande,No,Yes,11211.0,(917) 909-0466,http://www.chinograndenyc.com/,Eater,0.0,0,0.0,1.0,0.0,0.0,1.0,,"253 Grand St, Brooklyn, NY 11211, USA"
Cozy Royale,BB1,Cozy Royale,No,Yes,11211.0,(718) 734-2792,http://cozyroyale.com/,Eater,0.0,0,0.0,1.0,0.0,0.0,1.0,,"434 Humboldt St, Brooklyn, NY 11211, USA"
The Four Horsemen,BB1,The Four Horsemen,No,Yes,11211.0,(718) 599-4900,http://fourhorsemenbk.com/,Eater,0.0,0,0.0,1.0,0.0,0.0,1.0,,"295 Grand St, Brooklyn, NY 11211, USA"
Lilia,BB2,Lilia,No,Yes,11222.0,(718) 576-3095,http://www.lilianewyork.com/,Eater,0.0,0,0.0,1.0,0.0,0.0,1.0,,"567 Union Ave, Brooklyn, NY 11211, USA"
MáLà Project,BB2,MáLà,No,No,10009.0,,http://malaproject.com/,NYC Hitlist,0.0,0,0.0,0.0,0.0,0.0,1.0,,"122 1st Ave., New York, NY 10009, USA"
,,,,,,,,,,,,,,,,,"New York, NY, USA"
,,,,,,,,,,,,,,,,,"New York, NY, USA"
,,,,,,,,,,,,,,,,,"New York, NY, USA"
,,,,,,,,,,,,,,,,,"New York, NY, USA"
,,,,,,,,,,,,,,,,,"New York, NY, USA"
,,,,,,,,,,,,,,,,,"New York, NY, USA"
,,,,,,,,,,,,,,,,,"New York, NY, USA"
,,,,,,,,,,,,,,,,,"New York, NY, USA"
,,,,,,,,,,,,,,,,,"New York, NY, USA"
,,,,,,,,,,,,,,,,,"New York, NY, USA"
,,,,,,,,,,,,,,,,,"New York, NY, USA"
,,,,,,,,,,,,,,,,,"New York, NY, USA"
,,,,,,,,,,,,,,,,,"New York, NY, USA"
,,,,,,,,,,,,,,,,,"New York, NY, USA"
,,,,,,,,,,,,,,,,,"New York, NY, USA"
,,,,,,,,,,,,,,,,,"New York, NY, USA"
,,,,,,,,,,,,,,,,,"New York, NY, USA"
,,,,,,,,,,,,,,,,,"New York, NY, USA"
,,,,,,,,,,,,,,,,,"New York, NY, USA"
,,,,,,,,,,,,,,,,,"New York, NY, USA"
,,,,,,,,,,,,,,,,,"New York, NY, USA"
,,,,,,,,,,,,,,,,,"New York, NY, USA"
,,,,,,,,,,,,,,,,,"New York, NY, USA"
,,,,,,,,,,,,,,,,,"New York, NY, USA"
,,,,,,,,,,,,,,,,,"New York, NY, USA"
,,,,,,,,,,,,,,,,,"New York, NY, USA"
,,,,,,,,,,,,,,,,,"New York, NY, USA"
,,,,,,,,,,,,,,,,,"New York, NY, USA"
,,,,,,,,,,,,,,,,,"New York, NY, USA"
,,,,,,,,,,,,,,,,,"New York, NY, USA"
,,,,,,,,,,,,,,,,,"New York, NY, USA"
,,,,,,,,,,,,,,,,,"New York, NY, USA"
,,,,,,,,,,,,,,,,,"New York, NY, USA"
,,,,,,,,,,,,,,,,,"New York, NY, USA"
,,,,,,,,,,,,,,,,,"New York, NY, USA"
,,,,,,,,,,,,,,,,,"New York, NY, USA"
,,,,,,,,,,,,,,,,,"New York, NY, USA"
,,,,,,,,,,,,,,,,,"New York, NY, USA"
,,,,,,,,,,,,,,,,,"New York, NY, USA"
,,,,,,,,,,,,,,,,,"New York, NY, USA"
,,,,,,,,,,,,,,,,,"New York, NY, USA"
,,,,,,,,,,,,,,,,,"New York, NY, USA"
,,,,,,,,,,,,,,,,,"New York, NY, USA"
,,,,,,,,,,,,,,,,,"New York, NY, USA"
,,,,,,,,,,,,,,,,,"New York, NY, USA"
,,,,,,,,,,,,,,,,,"New York, NY, USA"
,,,,,,,,,,,,,,,,,"New York, NY, USA"
,,,,,,,,,,,,,,,,,"New York, NY, USA"
,,,,,,,,,,,,,,,,,"New York, NY, USA"
,,,,,,,,,,,,,,,,,"New York, NY, USA"
,,,,,,,,,,,,,,,,,"New York, NY, USA"
,,,,,,,,,,,,,,,,,"New York, NY, USA"
,,,,,,,,,,,,,,,,,"New York, NY, USA"
,,,,,,,,,,,,,,,,,"New York, NY, USA"
,,,,,,,,,,,,,,,,,"New York, NY, USA"
,,,,,,,,,,,,,,,,,"New York, NY, USA"
,,,,,,,,,,,,,,,,,"New York, NY, USA"
,,,,,,,,,,,,,,,,,"New York, NY, USA"
,,,,,,,,,,,,,,,,,"New York, NY, USA"
,,,,,,,,,,,,,,,,,"New York, NY, USA"
,,,,,,,,,,,,,,,,,"New York, NY, USA"
,,,,,,,,,,,,,,,,,"New York, NY, USA"
,,,,,,,,,,,,,,,,,"New York, NY, USA"
,,,,,,,,,,,,,,,,,"New York, NY, USA"
,,,,,,,,,,,,,,,,,"New York, NY, USA"
,,,,,,,,,,,,,,,,,"New York, NY, USA"
,,,,,,,,,,,,,,,,,"New York, NY, USA"
,,,,,,,,,,,,,,,,,"New York, NY, USA"
,,,,,,,,,,,,,,,,,"New York, NY, USA"
,,,,,,,,,,,,,,,,,"New York, NY, USA"
,,,,,,,,,,,,,,,,,"New York, NY, USA"
,,,,,,,,,,,,,,,,,"New York, NY, USA"
,,,,,,,,,,,,,,,,,"New York, NY, USA"
,,,,,,,,,,,,,,,,,"New York, NY, USA"
,,,,,,,,,,,,,,,,,"New York, NY, USA"
,,,,,,,,,,,,,,,,,"New York, NY, USA"
,,,,,,,,,,,,,,,,,"New York, NY, USA"
,,,,,,,,,,,,,,,,,"New York, NY, USA"
,,,,,,,,,,,,,,,,,"New York, NY, USA"
,,,,,,,,,,,,,,,,,"New York, NY, USA"
,,,,,,,,,,,,,,,,,"New York, NY, USA"
,,,,,,,,,,,,,,,,,"New York, NY, USA"
,,,,,,,,,,,,,,,,,"New York, NY, USA"
,,,,,,,,,,,,,,,,,"New York, NY, USA"
,,,,,,,,,,,,,,,,,"New York, NY, USA"
,,,,,,,,,,,,,,,,,"New York, NY, USA"
,,,,,,,,,,,,,,,,,"New York, NY, USA"
,,,,,,,,,,,,,,,,,"New York, NY, USA"
,,,,,,,,,,,,,,,,,"New York, NY, USA"
,,,,,,,,,,,,,,,,,"New York, NY, USA"
,,,,,,,,,,,,,,,,,"New York, NY, USA"
,,,,,,,,,,,,,,,,,"New York, NY, USA"
,,,,,,,,,,,,,,,,,"New York, NY, USA"
,,,,,,,,,,,,,,,,,"New York, NY, USA"
,,,,,,,,,,,,,,,,,"New York, NY, USA"
,,,,,,,,,,,,,,,,,"New York, NY, USA"
,,,,,,,,,,,,,,,,,"New York, NY, USA"
,,,,,,,,,,,,,,,,,"New York, NY, USA"
,,,,,,,,,,,,,,,,,"New York, NY, USA"
,,,,,,,,,,,,,,,,,"New York, NY, USA"
,,,,,,,,,,,,,,,,,"New York, NY, USA"
,,,,,,,,,,,,,,,,,"New York, NY, USA"
,,,,,,,,,,,,,,,,,"New York, NY, USA"
,,,,,,,,,,,,,,,,,"New York, NY, USA"
,,,,,,,,,,,,,,,,,"New York, NY, USA"
,,,,,,,,,,,,,,,,,"New York, NY, USA"
,,,,,,,,,,,,,,,,,"New York, NY, USA"
,,,,,,,,,,,,,,,,,"New York, NY, USA"
,,,,,,,,,,,,,,,,,"New York, NY, USA"
,,,,,,,,,,,,,,,,,"New York, NY, USA"
,,,,,,,,,,,,,,,,,"New York, NY, USA"
,,,,,,,,,,,,,,,,,"New York, NY, USA"
,,,,,,,,,,,,,,,,,"New York, NY, USA"
,,,,,,,,,,,,,,,,,"New York, NY, USA"
,,,,,,,,,,,,,,,,,"New York, NY, USA"
,,,,,,,,,,,,,,,,,"New York, NY, USA"
,,,,,,,,,,,,,,,,,"New York, NY, USA"
,,,,,,,,,,,,,,,,,"New York, NY, USA"
,,,,,,,,,,,,,,,,,"New York, NY, USA"
,,,,,,,,,,,,,,,,,"New York, NY, USA"
,,,,,,,,,,,,,,,,,"New York, NY, USA"
,,,,,,,,,,,,,,,,,"New York, NY, USA"
,,,,,,,,,,,,,,,,,"New York, NY, USA"
,,,,,,,,,,,,,,,,,"New York, NY, USA"
,,,,,,,,,,,,,,,,,"New York, NY, USA"
,,,,,,,,,,,,,,,,,"New York, NY, USA"
,,,,,,,,,,,,,,,,,"New York, NY, USA"
,,,,,,,,,,,,,,,,,"New York, NY, USA"
,,,,,,,,,,,,,,,,,"New York, NY, USA"
,,,,,,,,,,,,,,,,,"New York, NY, USA"
,,,,,,,,,,,,,,,,,"New York, NY, USA"
,,,,,,,,,,,,,,,,,"New York, NY, USA"
,,,,,,,,,,,,,,,,,"New York, NY, USA"
,,,,,,,,,,,,,,,,,"New York, NY, USA"
,,,,,,,,,,,,,,,,,"New York, NY, USA"
,,,,,,,,,,,,,,,,,"New York, NY, USA"
,,,,,,,,,,,,,,,,,"New York, NY, USA"
,,,,,,,,,,,,,,,,,"New York, NY, USA"
,,,,,,,,,,,,,,,,,"New York, NY, USA"
,,,,,,,,,,,,,,,,,"New York, NY, USA"
,,,,,,,,,,,,,,,,,"New York, NY, USA"
,,,,,,,,,,,,,,,,,"New York, NY, USA"
,,,,,,,,,,,,,,,,,"New York, NY, USA"
,,,,,,,,,,,,,,,,,"New York, NY, USA"
,,,,,,,,,,,,,,,,,"New York, NY, USA"
,,,,,,,,,,,,,,,,,"New York, NY, USA"
,,,,,,,,,,,,,,,,,"New York, NY, USA"
The Grey Dog,BB2,The Grey Dog,No,No,10014.0,,http://www.thegreydog.com/,New York Hitlist,0.0,1,0.0,0.0,0.0,0.0,1.0,Multiple Locations,"New York, NY, USA"
Whitmans,BB2,Whitmans,No,No,10009.0,,https://whitmansnyc.com/,NYC Hitlist,1.0,0,0.0,0.0,0.0,0.0,1.0,,"406 E 9th St, New York, NY 10009, USA"
,,,,,,,,,,,,,,,,,"New York, NY, USA"
Aubi & Ramsa,BB2,Aubi,No,No,10014.0,,http://aubiramsa.com/,New York Hitlist,1.0,0,0.0,0.0,0.0,0.0,1.0,Multiple Locations,"New York, NY, USA"
,,,,,,,,,,,,,,,,,"New York, NY, USA"
Koloman,BB2,Koloman,No,Yes,10001.0,(212) 790-8970,https://kolomanrestaurant.com/,Eater,0.0,0,0.0,0.0,0.0,0.0,1.0,,"16 W 29th St, New York, NY 10001, USA"
,,,,,,,,,,,,,,,,,"New York, NY, USA"
,,,,,,,,,,,,,,,,,"New York, NY, USA"
,,,,,,,,,,,,,,,,,"New York, NY, USA"
,,,,,,,,,,,,,,,,,"New York, NY, USA"
,,,,,,,,,,,,,,,,,"New York, NY, USA"
,,,,,,,,,,,,,,,,,"New York, NY, USA"
Corima,BB1,Corima,No,Yes,10002.0,Not Available,https://corimanyc.com/,Eater,0.0,0,0.0,0.0,0.0,0.0,1.0,,"3 Allen St, New York, NY 10002, USA"
Dirt Candy,BB2,Dirt Candy,No,Yes,10002.0,(212) 228-7732,http://www.dirtcandynyc.com/,Eater,0.0,0,0.0,0.0,0.0,0.0,1.0,,"86 Allen St, New York, NY 10002, USA"
Eel Bar,BB3,Eel,No,Yes,10002.0,Not Available,https://www.eelbarnyc.com/,Eater,0.0,0,0.0,0.0,0.0,0.0,1.0,,"252 Broome St, New York, NY 10002, USA"
Rabbit House (Essex),BB1,Rabbit,No,Yes,10002.0,Not Available,Not Available,Eater,0.0,0,0.0,0.0,0.0,0.0,1.0,,"41 Essex St, New York, NY 10002, USA"
,,,,,,,,,,,,,,,,,"New York, NY, USA"
Tolo,BB1,Tolo,No,Yes,10002.0,Not Available,https://tolonyc.com/,Eater,0.0,0,0.0,0.0,0.0,0.0,1.0,,"28 Canal St, New York, NY 10002, USA"
Wildair,BB2,Wildair,No,Yes,10002.0,(646) 964-5624,http://wildair.nyc/,Eater,0.0,0,0.0,0.0,0.0,0.0,1.0,,"142 Orchard St, New York, NY 10002, USA"
,,,,,,,,,,,,,,,,,"New York, NY, USA"
,,,,,,,,,,,,,,,,,"New York, NY, USA"
Penny,BB3,Penny,No,Yes,10003.0,Not Available,https://www.penny-nyc.com/,Eater,0.0,0,0.0,0.0,0.0,0.0,1.0,,"90 E 10th St 1st Floor, New York, NY 10003, USA"
Holiday Cocktail Lounge,BB3,Holiday,No,Yes,10003.0,,https://www.holidaycocktaillounge.bar/,NYC Hitlist,0.0,0,0.0,0.0,0.0,0.0,1.0,,"75 St Marks Pl, New York, NY 10003, USA"
,,,,,,,,,,,,,,,,,"New York, NY, USA"
Veselka,BB1,Veselka,No,Yes,10003.0,,https://www.veselka.com/?utm_source=google,NYC Hitlist,0.0,0,0.0,0.0,0.0,0.0,1.0,,"144 2nd Ave, New York, NY 10003, USA"
,,,,,,,,,,,,,,,,,"New York, NY, USA"
,,,,,,,,,,,,,,,,,"New York, NY, USA"
Gotham Restaurant,BB1,Gotham,No,Yes,10003.0,,http://gotham.restaurant/,NYC Hitlist,0.0,0,0.0,0.0,0.0,0.0,1.0,,"12 E 12th St, New York, NY 10003, USA"
,,,,,,,,,,,,,,,,,"New York, NY, USA"
,,,,,,,,,,,,,,,,,"New York, NY, USA"
Ito,BB1,Ito,No,Yes,10007.0,Not Available,https://itotribeca.com/,Eater,0.0,0,0.0,0.0,0.0,0.0,1.0,,"New York, NY, USA"
Foul Witch,BB1,Foul Witch,No,Yes,10009.0,Not Available,https://www.foulwitchnyc.com/,Eater,0.0,0,0.0,0.0,0.0,0.0,1.0,,"15 Avenue A, New York, NY 10009, USA"
,,,,,,,,,,,,,,,,,"New York, NY, USA"
Kolachi,BB2,Kolachi,No,Yes,10009.0,(917) 262-0633,Not Available,Eater,0.0,0,0.0,0.0,0.0,0.0,1.0,,"130 1st Ave., New York, NY 10009, USA"
,,,,,,,,,,,,,,,,,"New York, NY, USA"
,,,,,,,,,,,,,,,,,"New York, NY, USA"
Death & Co,BB3,Death & Co,No,Yes,10009.0,,http://www.deathandcompany.com/,NYC Hitlist,0.0,0,0.0,0.0,0.0,0.0,1.0,,"433 E 6th St, New York, NY 10009, USA"
Superiority Burger,BB2,Superiority Burger,No,Yes,10009.0,,http://www.superiorityburger.com/,NYC Hitlist,0.0,0,0.0,0.0,0.0,0.0,1.0,,"119 Avenue A, New York, NY 10009, USA"
Balade,BB1,Balade,No,Yes,10009.0,,https://www.baladerestaurants.com/,NYC Hitlist,0.0,0,0.0,0.0,0.0,0.0,1.0,,"208 1st Ave., New York, NY 10009, USA"
Pineapple Club,BB3,Pineapple Club,No,Yes,10009.0,,https://pineappleclub.com/,NYC Hitlist,0.0,0,0.0,0.0,0.0,0.0,1.0,,"509 E 6th St, New York, NY 10009, USA"
Gnocco,BB1,Gnocco,No,Yes,10009.0,,http://www.gnocco.com/,NYC Hitlist,0.0,0,0.0,0.0,0.0,0.0,1.0,,"337 E 10th St, New York, NY 10009, USA"
,,,,,,,,,,,,,,,,,"New York, NY, USA"
Evil Katsu,BB2,Evil Katsu,No,Yes,10009.0,,http://www.evilkatsu.com/,NYC Hitlist,0.0,0,0.0,0.0,0.0,0.0,1.0,,"435 E 9th St, New York, NY 10009, USA"
Mister Paradise,BB3,Paradise,No,Yes,10009.0,,https://www.misterparadisenyc.com/,NYC Hitlist,0.0,0,0.0,0.0,0.0,0.0,1.0,,"105 1st Ave., New York, NY 10009, USA"
,,,,,,,,,,,,,,,,,"New York, NY, USA"
,,,,,,,,,,,,,,,,,"New York, NY, USA"
Rosella,BB1,Rosella,No,Yes,10009.0,,http://www.rosellanyc.com/,NYC Hitlist,0.0,0,0.0,0.0,0.0,0.0,1.0,,"137 Avenue A, New York, NY 10009, USA"
,,,,,,,,,,,,,,,,,"New York, NY, USA"
Luthun,BB2,Luthun,No,Yes,10009.0,,https://www.luthun.com/,NYC Hitlist,0.0,0,0.0,0.0,0.0,0.0,1.0,,"432 E 13th St, New York, NY 10009, USA"
Bar Lula,BB3,Lula,No,Yes,10009.0,,http://www.barlula.com/,NYC Hitlist,0.0,0,0.0,0.0,0.0,0.0,1.0,,"132 1st Ave., New York, NY 10009, USA"
THE IZAKAYA NYC on 4th,BB1,IZAKAYA,No,Yes,10009.0,,https://www.theizakaya.nyc/4th,NYC Hitlist,0.0,0,0.0,0.0,0.0,0.0,1.0,,"215 E 4th St, New York, NY 10009, USA"
,,,,,,,,,,,,,,,,,"New York, NY, USA"
,,,,,,,,,,,,,,,,,"New York, NY, USA"
Hi-Note,BB3,Hi-Note,No,Yes,10009.0,,https://www.hi-note.nyc/,NYC Hitlist,0.0,0,0.0,0.0,0.0,0.0,1.0,,"188 Avenue B, New York, NY 10009, USA"
,,,,,,,,,,,,,,,,,"New York, NY, USA"
SUPPER,BB2,SUPPER,No,No,10009.0,1 212-477-7600,supperrestaurant.com,Toast,0.0,0,0.0,0.0,0.0,0.0,1.0,,"156 E 2nd St, New York, NY 10009, USA"
,,,,,,,,,,,,,,,,,"New York, NY, USA"
,,,,,,,,,,,,,,,,,"New York, NY, USA"
,,,,,,,,,,,,,,,,,"New York, NY, USA"
Jose Luis Mediterranean Cuisine,BB1,Jose Luis,No,No,10009.0,,http://joseluisnewyork.com/,NYC Hitlist,0.0,0,0.0,0.0,0.0,0.0,1.0,,"186 Avenue B, New York, NY 10009, USA"
The Roost,BB2,Roost,No,No,10009.0,,https://newyork.theroostnyc.com/,NYC Hitlist,0.0,0,0.0,0.0,0.0,0.0,1.0,,"222 Avenue B, New York, NY 10009, USA"
,,,,,,,,,,,,,,,,,"New York, NY, USA"
,,,,,,,,,,,,,,,,,"New York, NY, USA"
POST,BB1,POST,No,No,10009.0,,http://www.post-nyc.com/,NYC Hitlist,0.0,0,0.0,0.0,0.0,0.0,1.0,,"New York, NY 10009, USA"
,,,,,,,,,,,,,,,,,"New York, NY, USA"
Lucky,BB2,Lucky,No,No,10009.0,,http://www.luckyonb.com/,NYC Hitlist,0.0,0,0.0,0.0,0.0,0.0,1.0,,"168 Avenue B, New York, NY 10009, USA"
,,,,,,,,,,,,,,,,,"New York, NY, USA"
,,,,,,,,,,,,,,,,,"New York, NY, USA"
,,,,,,,,,,,,,,,,,"New York, NY, USA"
DA RADDA 7th Street,BB1,Da Radda,No,No,10009.0,,https://www.daraddanyc.com/,NYC Hitlist,0.0,0,0.0,0.0,0.0,0.0,1.0,,"127 E 7th St, New York, NY 10009, USA"
,,,,,,,,,,,,,,,,,"New York, NY, USA"
Smør Bakery,BB2,Smor,No,No,10009.0,,http://smorbakerynyc.com/,NYC Hitlist,0.0,0,0.0,0.0,0.0,0.0,1.0,,"437 E 12th St, New York, NY 10009, USA"
Westville East,BB1,Westville,No,No,10009.0,,https://westvillenyc.com/locations/westville-east/,NYC Hitlist,0.0,0,0.0,0.0,0.0,0.0,1.0,,"173 Avenue A, New York, NY 10009, USA"
Dumpling Man NY,BB2,Dumpling Man,No,No,10009.0,,https://dumplingman.com/,NYC Hitlist,0.0,0,0.0,0.0,0.0,0.0,1.0,,"100 St Marks Pl #7, New York, NY 10009, USA"
,,,,,,,,,,,,,,,,,"New York, NY, USA"
,,,,,,,,,,,,,,,,,"New York, NY, USA"
,,,,,,,,,,,,,,,,,"New York, NY, USA"
,,,,,,,,,,,,,,,,,"New York, NY, USA"
,,,,,,,,,,,,,,,,,"New York, NY, USA"
,,,,,,,,,,,,,,,,,"New York, NY, USA"
,,,,,,,,,,,,,,,,,"New York, NY, USA"
,,,,,,,,,,,,,,,,,"New York, NY, USA"
Royale,BB2,Royale,No,No,10009.0,,http://royalebarnyc.com/,NYC Hitlist,0.0,0,0.0,0.0,0.0,0.0,1.0,,"157 Loisaida Ave, New York, NY 10009, USA"
,,,,,,,,,,,,,,,,,"New York, NY, USA"
Ten Degrees,BB3,Ten Degrees,No,No,10009.0,,https://www.tendegreesbar.com/,NYC Hitlist,0.0,0,0.0,0.0,0.0,0.0,1.0,,"121 St Marks Pl, New York, NY 10009, USA"
Drop Off Service,BB3,Drop Off Service,No,No,10009.0,,,NYC Hitlist,0.0,0,0.0,0.0,0.0,0.0,1.0,,"211 Avenue A, New York, NY 10009, USA"
B Cup Cafe,BB2,B Cup,No,No,10009.0,,https://www.bcupcafe.com/,NYC Hitlist,0.0,0,0.0,0.0,0.0,0.0,1.0,,"212 Avenue B, New York, NY 10009, USA"
,,,,,,,,,,,,,,,,,"New York, NY, USA"
SHINN EAST,BB2,SHINN EAST,No,No,10009.0,,http://shinneast.com/,NYC Hitlist,0.0,0,0.0,0.0,0.0,0.0,1.0,,"119 E 7th St, New York, NY 10009, USA"
,,,,,,,,,,,,,,,,,"New York, NY, USA"
,,,,,,,,,,,,,,,,,"New York, NY, USA"
,,,,,,,,,,,,,,,,,"New York, NY, USA"
,,,,,,,,,,,,,,,,,"New York, NY, USA"
,,,,,,,,,,,,,,,,,"New York, NY, USA"
Mary O's,BB1,Mary O's,No,No,10009.0,,https://maryos.nyc/,NYC Hitlist,0.0,0,0.0,0.0,0.0,0.0,1.0,,"32 Avenue A, New York, NY 10009, USA"
International Bar,BB3,International Bar,No,No,10009.0,,http://www.internationalbarnyc.com/,NYC Hitlist,0.0,0,0.0,0.0,0.0,0.0,1.0,,"102 1st Ave., New York, NY 10009, USA"
,,,,,,,,,,,,,,,,,"New York, NY, USA"
,,,,,,,,,,,,,,,,,"New York, NY, USA"
,,,,,,,,,,,,,,,,,"New York, NY, USA"
TLC Tea House,BB2,TLC Tea House,No,No,10009.0,,https://themenustar3.com/webspace/menus.php?code=ordertlcteahouse.com,NYC Hitlist,0.0,0,0.0,0.0,0.0,0.0,1.0,,"103 E 2nd St, New York, NY 10009, USA"
Elisa's Love Bites,BB2,Love Bites,No,No,10009.0,,http://www.elisaslovebites.com/,NYC Hitlist,0.0,0,0.0,0.0,0.0,0.0,1.0,,"441 E 9th St, New York, NY 10009, USA"
The York,BB1,The York,No,No,10009.0,,http://theyork.nyc/,NYC Hitlist,0.0,0,0.0,0.0,0.0,0.0,1.0,,"186 Avenue B, New York, NY 10009, USA"
M & J,BB2,M & J,No,No,10009.0,,http://www.mjasiancuisinenyc.com/?utm_source=gmb,NYC Hitlist,0.0,0,0.0,0.0,0.0,0.0,1.0,,"600 E 14th St, New York, NY 10009, USA"
C&B,BB2,C&B,No,No,10009.0,Not Available,http://www.candbnyc.com/,Eater,0.0,0,0.0,0.0,0.0,0.0,1.0,,"178 E 7th St, New York, NY 10009, USA"
Caleta,BB1,Caleta,No,No,10009.0,(646) 360-4072,http://caletanyc.com/,Eater,0.0,0,0.0,0.0,0.0,0.0,1.0,,"New York, NY 10009, USA"
Carnitas Ramirez,BB1,Ramirez,No,No,10009.0,Not Available,https://ny.eater.com/2024/6/26/24182669/carnitas-ramirez-taqueria-opens-east-village-manhattan,Eater,0.0,0,0.0,0.0,0.0,0.0,1.0,,"210 E 3rd St, New York, NY 10009, USA"
Da Radda,BB1,Radda,No,No,10009.0,Not Available,http://daraddanyc.com/,Eater,0.0,0,0.0,0.0,0.0,0.0,1.0,,"127 E 7th St, New York, NY 10009, USA"
Nowon East Village,BB1,Nowon,No,Yes,,,http://www.nowonUSA.com,NYC Hitlist,0.0,#REF!,0.0,0.0,0.0,1.0,,,"507 E 6th St, New York, NY 10009, USA"
ARIARI,BB3,ARIARI,No,Yes,,,http://www.ariarinyc.com,NYC Hitlist,0.0,#REF!,0.0,0.0,0.0,1.0,,,"119 1st Ave., New York, NY 10003, USA"
Dua Kafe,BB2,Kafe,No,No,10009.0,(212) 228-1696,http://duakafe.weeblysite.com/,Eater,0.0,0,0.0,0.0,0.0,0.0,1.0,,"520 E 14th St, New York, NY 10009, USA"
El Rinconcito,BB2,Rinconcito,No,No,10009.0,(212) 254-1381,https://www.instagram.com/elrinconles?igshid=499iontauvpt,Eater,0.0,0,0.0,0.0,0.0,0.0,1.0,,"75 Loisaida Ave, New York, NY 10009, USA"
Fiaschetteria Pistoia,BB2,Pistoia,No,No,10009.0,(212) 777-3355,https://www.fiaschetteriapistoia.com/,Eater,0.0,0,0.0,0.0,0.0,0.0,1.0,,"647 E 11th St, New York, NY 10009, USA"
8282,BB1,8282,No,Yes,,,http://eightwoeightwo.com,NYC Hitlist,0.0,#REF!,0.0,0.0,0.0,1.0,,,"84 Stanton St, New York, NY 10002, USA"
Lê Phin,BB2,Phin,No,No,10009.0,(415) 412-7066,Not Available,Eater,0.0,0,0.0,0.0,0.0,0.0,1.0,,"259 E 10th St, New York, NY 10009, USA"
Dumpling N’ Dips,BB1,Dumpling,No,Yes,,,http://www.dumplingndips.com,NYC Hitlist,0.0,#REF!,0.0,0.0,0.0,1.0,,,"5 St Marks Pl, New York, NY 10003, USA"
Little Myanmar,BB1,Myanmar,No,No,10009.0,Not Available,Not Available,Eater,0.0,0,0.0,0.0,0.0,0.0,1.0,,"150 E 2nd St, New York, NY 10009, USA"
Veeray Da Dhaba,BB2,Veeray,No,No,10009.0,(212) 777-1420,http://www.veeraydadhaba.com/,Eater,0.0,0,0.0,0.0,0.0,0.0,1.0,,"222 1st Ave., New York, NY 10009, USA"
Jazba,BB1,Jazba,No,Yes,,,https://www.jazbanyc.com,NYC Hitlist,0.0,#REF!,0.0,0.0,0.0,1.0,,,"207 2nd Ave, New York, NY 10003, USA"
Avant Gardner,BB2,Gardner,No,No,10009.0,347-987-3146,https://www.avant-gardner.com/,Toast,0.0,0,0.0,0.0,0.0,0.0,1.0,,"140 Stewart Ave, Brooklyn, NY 11237, USA"
The Office of Mr Moto,BB1,Moto,No,Yes,,,http://www.dearmrmoto.com,NYC Hitlist,0.0,#REF!,0.0,0.0,0.0,1.0,,,"120A St Marks Pl, New York, NY 10009, USA"
Tsukimi,BB2,Tsukimi,No,Yes,,,http://www.tsukimi.nyc,NYC Hitlist,0.0,#REF!,0.0,0.0,0.0,1.0,,,"228 E 10th St, New York, NY 10003, USA"
Dingaling,BB3,Dingaling,No,No,10009.0,(929) 637-8519,dingalingnyc.com,Toast,0.0,0,0.0,0.0,0.0,0.0,1.0,,"116 Loisaida Ave, New York, NY 10009, USA"
Two Boots,BB2,Boots,No,No,10009.0,(646) 861-3970,https://www.twoboots.com/contact,Toast,0.0,0,0.0,0.0,0.0,0.0,1.0,,"42 Avenue A, New York, NY 10009, USA"
Boulton & Watt,BB1,Watt,No,No,10009.0,(646) 490-6004,https://www.boultonandwattnyc.com/food,Toast,0.0,0,0.0,0.0,0.0,0.0,1.0,,"5 Avenue A, New York, NY 10009, USA"
Szechuan Mountain House,BB2,Szechuan,No,No,,,http://www.szechuanmountainhouse.com/home/contact/,NYC Hitlist,0.0,#REF!,0.0,0.0,0.0,1.0,,,"3916 Prince St g03, Flushing, NY 11354, USA"
MOKYO,BB1,MOKYO,No,No,10009.0,646) 755-8088,mokyony.com,Toast,0.0,0,0.0,0.0,0.0,0.0,1.0,,"109 St Marks Pl, New York, NY 10009, USA"
Yuca,BB2,Yuca,No,No,10009.0,,http://yucabarnyc.com/,NYC Hitlist,0.0,0,0.0,0.0,0.0,0.0,1.0,,"111 Avenue A, New York, NY 10009, USA"
Banh Mi Zon,BB2,Banh Mi Zon,No,No,,,http://banhmizon.com,NYC Hitlist,0.0,#REF!,0.0,0.0,0.0,1.0,,,"443 E 6th St, New York, NY 10009, USA"
Casa Adela,BB2,Adela,No,No,10009.0,,https://casa-adela-puerto-rican-restaurant.business.site/?utm_source=gmb,NYC Hitlist,0.0,0,0.0,0.0,0.0,0.0,1.0,,"66 Loisaida Ave, New York, NY 10009, USA"
Miss Lily's 7A Cafe,BB2,7A,No,No,10009.0,,https://www.misslilys.com/,NYC Hitlist,0.0,0,0.0,0.0,0.0,0.0,1.0,,"109 Avenue A, New York, NY 10009, USA"
Buenos Aires,BB1,Buenos,No,No,10009.0,,http://www.buenosairesnyc.com/,NYC Hitlist,0.0,0,0.0,0.0,0.0,0.0,1.0,,"513 E 6th St, New York, NY 10009, USA"
Poke and Roll Sushi,BB2,Poke,No,No,10009.0,,http://pokeandrollnyc.com/,NYC Hitlist,0.0,0,0.0,0.0,0.0,0.0,1.0,,"441 E 9th St, New York, NY 10009, USA"
Taverna Kyclades East Village,BB2,Kyclades,No,No,10009.0,,http://www.tavernakycladesnyc.com/,NYC Hitlist,0.0,0,0.0,0.0,0.0,0.0,1.0,,"228 1st Ave., New York, NY 10009, USA"
Sidney’s Five,BB1,Sidney’s Five,No,No,,,http://sidneysfive.com,NYC Hitlist,0.0,#REF!,0.0,0.0,0.0,1.0,,,"103 1st Ave., New York, NY 10003, USA"
Ray's Candy Store,BB2,Ray's,No,No,10009.0,,http://www.rayscandystore.com/,NYC Hitlist,0.0,0,0.0,0.0,0.0,0.0,1.0,,"113 Avenue A, New York, NY 10009, USA"
Kafana,BB1,Kafana,No,No,10009.0,,http://www.kafananyc.com/,NYC Hitlist,0.0,0,0.0,0.0,0.0,0.0,1.0,,"116 Loisaida Ave, New York, NY 10009, USA"
Minca,BB2,Minca,No,No,10009.0,,http://newyorkramen.com/minca/,NYC Hitlist,0.0,0,0.0,0.0,0.0,0.0,1.0,,"536 E 5th St, New York, NY 10009, USA"
Tallgrass Burger,BB2,Tallgrass,No,No,10009.0,,http://tallgrassburgers.com/,NYC Hitlist,0.0,0,0.0,0.0,0.0,0.0,1.0,,"214 1st Ave., New York, NY 10009, USA"
Otto's Shrunken Head,BB3,Otto's,No,No,10009.0,,http://www.ottosshrunkenhead.com/,NYC Hitlist,0.0,0,0.0,0.0,0.0,0.0,1.0,,"538 E 14th St, New York, NY 10009, USA"
The Wayland,BB3,Wayland,No,No,10009.0,,http://thewaylandnyc.com/,NYC Hitlist,0.0,0,0.0,0.0,0.0,0.0,1.0,,"700 E 9th St, New York, NY 10009, USA"
TabeTomo,BB1,Tomo,No,No,10009.0,,http://tabetomonyc.com/,NYC Hitlist,0.0,0,0.0,0.0,0.0,0.0,1.0,,"131 Avenue A, New York, NY 10009, USA"
Pardon My French,BB1,Pardon,No,No,10009.0,,http://www.pmf.nyc/,NYC Hitlist,0.0,0,0.0,0.0,0.0,0.0,1.0,,"103 Avenue B, New York, NY 10009, USA"
Cafe Himalaya,BB2,Himalaya,No,No,10009.0,,http://cafehimalaya.weebly.com/,NYC Hitlist,0.0,0,0.0,0.0,0.0,0.0,1.0,,"78 E 1st St, New York, NY 10009, USA"
El Camion Cantina,BB3,Camion,No,No,10009.0,,https://www.camioncantina.com/,NYC Hitlist,0.0,0,0.0,0.0,0.0,0.0,1.0,,"194 Avenue A, New York, NY 10009, USA"
Pylos,BB3,Pylos,No,No,10009.0,,http://www.pylosrestaurant.com/,NYC Hitlist,0.0,0,0.0,0.0,0.0,0.0,1.0,,"128 E 7th St, New York, NY 10009, USA"
Spicy Moon East Village,BB1,Spicy Moon,No,No,,,http://spicymoonnyc.com,NYC Hitlist,0.0,#REF!,0.0,0.0,0.0,1.0,,,"328 E 6th St, New York, NY 10003, USA"
Boris & Horton,BB2,Horton,No,No,10009.0,,http://www.borisandhorton.com/,NYC Hitlist,0.0,0,0.0,0.0,0.0,0.0,1.0,,"195 Avenue A, New York, NY 10009, USA"
The Library,BB1,Library,No,No,10009.0,,,NYC Hitlist,0.0,0,0.0,0.0,0.0,0.0,1.0,,"7 Avenue A, New York, NY 10009, USA"
Gnoccheria East Village,BB2,Gnoccheria,No,No,10009.0,,https://www.gnoccherianyc.com/,NYC Hitlist,0.0,0,0.0,0.0,0.0,0.0,1.0,,"234 E 4th St, New York, NY 10009, USA"
Tuome,BB1,Tuome,No,No,10009.0,,http://www.tuomenyc.com/,NYC Hitlist,0.0,0,0.0,0.0,0.0,0.0,1.0,,"536 E 5th St, New York, NY 10009, USA"
Caravan Of Dreams,BB2,Caravan,No,No,10009.0,,http://caravanofdreams.net/,NYC Hitlist,0.0,0,0.0,0.0,0.0,0.0,1.0,,"405 E 6th St, New York, NY 10009, USA"
Bua,BB2,Bua,No,No,10009.0,,http://www.buabar.com/,NYC Hitlist,0.0,0,0.0,0.0,0.0,0.0,1.0,,"122 St Marks Pl, New York, NY 10009, USA"
Excuse My French,BB3,Excuse My French,No,No,,,http://www.excusemyfrench-nyc.com,NYC Hitlist,0.0,#REF!,0.0,0.0,0.0,1.0,,,"96 Orchard St, New York, NY 10002, USA"
Takahachi,BB2,Takahachi,No,No,10009.0,,http://takahachieast.squarespace.com/,NYC Hitlist,0.0,0,0.0,0.0,0.0,0.0,1.0,,"85 Avenue A, New York, NY 10009, USA"
Brindle Room,BB1,Brindle,No,No,10009.0,,http://brindleroomny.com/,NYC Hitlist,0.0,0,0.0,0.0,0.0,0.0,1.0,,"647 E 11th St, New York, NY 10009, USA"
Alphabet City Beer Co.,BB1,Beer,No,No,10009.0,,https://www.abcbeer.co/,NYC Hitlist,0.0,0,0.0,0.0,0.0,0.0,1.0,,"96 Loisaida Ave, New York, NY 10009, USA"
Double Down Saloon,BB3,Double,No,No,10009.0,,http://www.doubledownsaloon.com/,NYC Hitlist,0.0,0,0.0,0.0,0.0,0.0,1.0,,"14 Avenue A, New York, NY 10009, USA"
Village Square Pizza,BB2,Village Square,No,No,,,http://Villagesquarepizzanyc.com,NYC Hitlist,0.0,#REF!,0.0,0.0,0.0,1.0,,,"New York, NY, USA"
C as in Charlie,BB1,C as in Charlie,No,No,,,http://www.c-asincharlie.com,NYC Hitlist,0.0,#REF!,0.0,0.0,0.0,1.0,,,"5 Bleecker St, New York, NY 10012, USA"
David's Café,BB2,Café,No,No,10009.0,,http://www.davidscafenyc.com/,NYC Hitlist,0.0,0,0.0,0.0,0.0,0.0,1.0,,"110 St Marks Pl, New York, NY 10009, USA"
"Fiaschetteria ""Pistoia""",BB2,Pistoia,No,No,10009.0,,https://www.fiaschetteriapistoia.com/,NYC Hitlist,0.0,0,0.0,0.0,0.0,0.0,1.0,,"647 E 11th St, New York, NY 10009, USA"
Joey Bats Café,BB2,Bats,No,No,10009.0,,http://joeybatscafe.com/,NYC Hitlist,0.0,0,0.0,0.0,0.0,0.0,1.0,,"50 Avenue B, New York, NY 10009, USA"
Le French Diner,BB1,Le French Diner,No,No,,,,NYC Hitlist,0.0,#REF!,0.0,0.0,0.0,1.0,,,"188 Orchard St, New York, NY 10002, USA"
Ferns,BB1,Ferns,No,No,10009.0,,http://www.fernsnyc.com/,NYC Hitlist,0.0,0,0.0,0.0,0.0,0.0,1.0,,"166 1st Ave., New York, NY 10009, USA"
V-Nam Cafe,BB2,V-Nam,No,No,10009.0,,https://vnamcafe.com/,NYC Hitlist,0.0,0,0.0,0.0,0.0,0.0,1.0,,"20 1st Ave., New York, NY 10009, USA"
Haile,BB1,Haile,No,No,10009.0,,http://hailecuisine.com/,NYC Hitlist,0.0,0,0.0,0.0,0.0,0.0,1.0,,"182 Avenue B #1, New York, NY 10009, USA"
Appas Pizza,BB2,Appas Pizza,No,No,,,https://www.appaspizza.com,NYC Hitlist,0.0,#REF!,0.0,0.0,0.0,1.0,,,"210 1st Ave., New York, NY 10009, USA"
Döner Haus,BB2,Doner,No,No,,,http://www.doner.haus,NYC Hitlist,0.0,#REF!,0.0,0.0,0.0,1.0,,,"240 E 14th St, New York, NY 10003, USA"
Birria LES,BB2,Birria,No,No,,,https://www.birriales.com,NYC Hitlist,0.0,#REF!,0.0,0.0,0.0,1.0,,,"127 Rivington St, New York, NY 10002, USA"
7B Horseshoe Bar aka Vazacs,BB3,Horseshoe,No,No,10009.0,,https://www.facebook.com/7bHorseshoeBarAkaVazacs/,NYC Hitlist,0.0,0,0.0,0.0,0.0,0.0,1.0,,"108 Avenue B, New York, NY 10009, USA"
Mama Fina’s,BB1,Fina,No,No,10009.0,,http://www.mamafinas.com/,NYC Hitlist,0.0,0,0.0,0.0,0.0,0.0,1.0,,"167 Avenue A, New York, NY 10009, USA"
11th St. Bar,BB3,11th,No,No,10009.0,,http://11thstbar.com/,NYC Hitlist,0.0,0,0.0,0.0,0.0,0.0,1.0,,"510 E 11th St, New York, NY 10009, USA"
The Summit Bar,BB3,Summit,No,No,10009.0,,https://the-summit-bar.square.site/,NYC Hitlist,0.0,0,0.0,0.0,0.0,0.0,1.0,,"133 Loisaida Ave, New York, NY 10009, USA"
The Grafton,BB1,Grafton,No,No,10009.0,,http://www.thegraftonnyc.com/,NYC Hitlist,0.0,0,0.0,0.0,0.0,0.0,1.0,,"126 1st Ave., New York, NY 10009, USA"
Ninth Street Espresso,BB2,Ninth,No,No,10009.0,,http://www.ninthstreetespresso.com/,NYC Hitlist,0.0,0,0.0,0.0,0.0,0.0,1.0,,"341 E 10th St, New York, NY 10009, USA"
The Hard Swallow (Big Lee's),BB2,Swallow,No,No,10009.0,,http://www.thehardswallownyc.com/,NYC Hitlist,0.0,0,0.0,0.0,0.0,0.0,1.0,,"New York, NY, USA"
Ruffian,BB3,Ruffian,No,No,10009.0,,http://www.ruffiannyc.com/,NYC Hitlist,0.0,0,0.0,0.0,0.0,0.0,1.0,,"125 E 7th St, New York, NY 10009, USA"
Sophie's,BB2,Sophie's,No,No,10009.0,,https://www.facebook.com/Sophies-Bar-NYC-226324232989/,NYC Hitlist,0.0,0,0.0,0.0,0.0,0.0,1.0,,"507 E 5th St, New York, NY 10009, USA"
Mona's,BB2,Mona's,No,No,10009.0,,https://www.facebook.com/Monas-Bar-NYC-118839478171924/,NYC Hitlist,0.0,0,0.0,0.0,0.0,0.0,1.0,,"224 Avenue B Unit 14, New York, NY 10009, USA"
Plado Tasting Bar,BB3,Tasting,No,No,10009.0,,https://www.pladonyc.com/,NYC Hitlist,0.0,0,0.0,0.0,0.0,0.0,1.0,,"192 E 2nd St, New York, NY 10009, USA"
Frangos Peri Peri,BB1,Frangos,No,No,10009.0,,https://frangosperi.com/,NYC Hitlist,0.0,0,0.0,0.0,0.0,0.0,1.0,,"182 Avenue B, New York, NY 10009, USA"
The Garret East @ Borrachito,BB3,Garret,No,No,10009.0,,http://www.thegarretbars.com/,NYC Hitlist,0.0,0,0.0,0.0,0.0,0.0,1.0,,"206 Avenue A, New York, NY 10009, USA"
Smør,BB1,Smør,No,No,10009.0,,http://www.smornyc.com/,NYC Hitlist,0.0,0,0.0,0.0,0.0,0.0,1.0,,"441 E 12th St, New York, NY 10009, USA"
Tacos Cuautla Morelos,BB2,Cuautla,No,No,10009.0,,https://tacoscuautlamorelos.com/,NYC Hitlist,0.0,0,0.0,0.0,0.0,0.0,1.0,,"438 E 9th St, New York, NY 10009, USA"
The Spotted Owl Tavern,BB3,Spotted,No,No,10009.0,,http://www.thespottedowltavern.com/,NYC Hitlist,0.0,0,0.0,0.0,0.0,0.0,1.0,,"211 Avenue A, New York, NY 10009, USA"
Xe Máy Sandwich Shop,BB2,Máy,No,No,10009.0,,http://xemaysandwich.com/,NYC Hitlist,0.0,0,0.0,0.0,0.0,0.0,1.0,,"96 St Marks Pl, New York, NY 10009, USA"
Lucy's,BB2,Lucy's,No,No,10009.0,,,NYC Hitlist,0.0,0,0.0,0.0,0.0,0.0,1.0,,"135 Avenue A, New York, NY 10009, USA"
Gomi Korean Wine Bar,BB3,Gomi,No,No,10009.0,,http://gomikoreanwinebar.com/,NYC Hitlist,0.0,0,0.0,0.0,0.0,0.0,1.0,,"186 Avenue A, New York, NY 10009, USA"
Confectionery!,BB2,Confectionery,No,No,10009.0,,https://www.confectionerynyc.com/,NYC Hitlist,0.0,0,0.0,0.0,0.0,0.0,1.0,,"440 E 9th St, New York, NY 10009, USA"
A10 Kitchen,BB2,A10,No,No,10009.0,,http://a10kitchen.com/,NYC Hitlist,0.0,0,0.0,0.0,0.0,0.0,1.0,,"162 Avenue A, New York, NY 10009, USA"
Sake Bar Satsko,BB3,Satsko,No,No,10009.0,,http://www.satsko.com/reservations,NYC Hitlist,0.0,0,0.0,0.0,0.0,0.0,1.0,,"between Avenue B and C, 202 E 7th St, New York, NY 10009, USA"
St. Dymphna's,BB2,Dymphna's,No,No,10009.0,,,NYC Hitlist,0.0,0,0.0,0.0,0.0,0.0,1.0,,"117 Avenue A, New York, NY 10009, USA"
Augurs Well Bar,BB3,Augurs,No,No,10009.0,,http://www.augurswellbar.com/,NYC Hitlist,0.0,0,0.0,0.0,0.0,0.0,1.0,,"115 St Marks Pl, New York, NY 10009, USA"
2A,BB3,2A,No,No,10009.0,,,NYC Hitlist,0.0,0,0.0,0.0,0.0,0.0,1.0,,"25 Avenue A, New York, NY 10009, USA"
mochii,BB2,mochii,No,No,10009.0,,http://www.mochiinyc.com/,NYC Hitlist,0.0,0,0.0,0.0,0.0,0.0,1.0,,"116 E 7th St, New York, NY 10009, USA"
Bibi Wine Bar,BB3,Bibi,No,No,10009.0,,http://www.bibiwinebar.com/,NYC Hitlist,0.0,0,0.0,0.0,0.0,0.0,1.0,,"211 E 4th St, New York, NY 10009, USA"
Rossy's Bakery & Coffee Shop,BB2,Rossy's,No,No,10009.0,,http://rossysbakery.com/,NYC Hitlist,0.0,0,0.0,0.0,0.0,0.0,1.0,,"242 E 3rd St, New York, NY 10009, USA"
Koko Wings & Cajun Seafoods,BB1,Wings,No,No,10009.0,,http://www.kokowingsnyc.com/,NYC Hitlist,0.0,0,0.0,0.0,0.0,0.0,1.0,,"192 1st Ave., New York, NY 10009, USA"
Baonanas Banana Pudding,BB2,Baonanas,No,No,10009.0,,http://www.baonanas.com/,NYC Hitlist,0.0,0,0.0,0.0,0.0,0.0,1.0,,"93 E 7th St, New York, NY 10009, USA"
B-Side,BB2,B-Side,No,No,10009.0,,http://bsidenyc.com/,NYC Hitlist,0.0,0,0.0,0.0,0.0,0.0,1.0,,"204 Avenue B, New York, NY 10009, USA"
Village creperie,BB2,Creperie,No,No,10009.0,,https://villagecreperienyc.com/,NYC Hitlist,0.0,0,0.0,0.0,0.0,0.0,1.0,,"445 E 9th St, New York, NY 10009, USA"
Spes,BB3,Spes,No,No,10009.0,,https://www.spes.wine/,NYC Hitlist,0.0,0,0.0,0.0,0.0,0.0,1.0,,"413 E 12th St, New York, NY 10009, USA"
Eastpoint Bar,BB3,Eastpoint,No,No,10009.0,,https://www.eastpointnyc.com/,NYC Hitlist,0.0,0,0.0,0.0,0.0,0.0,1.0,,"25 Avenue B, New York, NY 10009, USA"
TOKUYAMATCHA & ONIGIRAZU BAR,BB2,ONIGIRAZU,No,No,10009.0,,http://tokuyamasalon.com/cafe/,NYC Hitlist,0.0,0,0.0,0.0,0.0,0.0,1.0,,"627 E 6th St, New York, NY 10009, USA"
All The Kings Horses Cafe,BB2,Horses,No,No,10009.0,,https://atkhcafe.com/,NYC Hitlist,0.0,0,0.0,0.0,0.0,0.0,1.0,,"521 E 12th St, New York, NY 10009, USA"
Alphabet Scoop,BB2,Scoop,No,No,10009.0,,http://www.alphabetscoopny.com/,NYC Hitlist,0.0,0,0.0,0.0,0.0,0.0,1.0,,"543 E 11th St, New York, NY 10009, USA"
Hibachi Express,BB2,Express,No,No,10009.0,,https://hibachiexpresstogo.com/,NYC Hitlist,0.0,0,0.0,0.0,0.0,0.0,1.0,,"536 E 14th St, New York, NY 10009, USA"
Accidental Bar,BB3,Accidental,No,No,10009.0,,https://www.accidentalbar.com/,NYC Hitlist,0.0,0,0.0,0.0,0.0,0.0,1.0,,"98 Loisaida Ave, New York, NY 10009, USA"
Cafe Social 68,BB2,68,No,No,10009.0,,,NYC Hitlist,0.0,0,0.0,0.0,0.0,0.0,1.0,,"68 Avenue A, New York, NY 10009, USA"
The Cabinet Mezcal Bar,BB3,Mezcal,No,No,10009.0,,http://www.thecabinetnyc.com/,NYC Hitlist,0.0,0,0.0,0.0,0.0,0.0,1.0,,"649 E 9th St, New York, NY 10009, USA"
FishMarket II,BB2,II,No,No,10009.0,,,NYC Hitlist,0.0,0,0.0,0.0,0.0,0.0,1.0,,"171 Avenue A, New York, NY 10009, USA"
Two Perrys,BB3,Perrys,No,No,10009.0,,,NYC Hitlist,0.0,0,0.0,0.0,0.0,0.0,1.0,,"127 Loisaida Ave, New York, NY 10009, USA"
La Fleur Café,BB2,Fleur,No,No,10009.0,,,NYC Hitlist,0.0,0,0.0,0.0,0.0,0.0,1.0,,"437 E 9th St, New York, NY 10009, USA"
Luz Cafe,BB2,Luz,No,No,10009.0,,http://luznewyork.com/,NYC Hitlist,0.0,0,0.0,0.0,0.0,0.0,1.0,,"97 St Marks Pl, New York, NY 10009, USA"
Ama Raw Bar West Village,BB3,Ama raw,No,Yes,10014.0,,https://www.amarawbar.com/ama-raw-bar-west-village/,New York Hitlist,0.0,0,0.0,0.0,0.0,0.0,1.0,,"39 Downing St, New York, NY 10014, USA"
Aria Carmine,BB2,Aria,No,Yes,10014.0,,http://sagrapizzabarmenu.com/,New York Hitlist,0.0,0,0.0,0.0,0.0,0.0,1.0,,"62 Carmine St, New York, NY 10014, USA"
Berimbau Brazilian Kitchen,BB1,Berimbau,No,Yes,10014.0,,https://www.berimbaunyc.com/,New York Hitlist,0.0,0,0.0,0.0,0.0,0.0,1.0,,"43 Carmine St, New York, NY 10014, USA"
Brunetti Pizza West Village,BB1,Brunetti,No,Yes,10014.0,,http://brunettipizza.com/,New York Hitlist,0.0,0,0.0,0.0,0.0,0.0,1.0,,"Brunetti Pizza West Village, 626 Hudson St, New York, NY 10014, USA"
Cafe Cluny,BB2,Cluny,No,Yes,10014.0,,http://www.cafecluny.com/,New York Hitlist,0.0,0,0.0,0.0,0.0,0.0,1.0,,"284 W 12th St, New York, NY 10014, USA"
Commerce Inn,BB3,Commerce Inn,No,Yes,10014.0,Not Available,http://www.thecommerceinn.com/,Eater,0.0,0,0.0,0.0,0.0,0.0,1.0,,"50 Commerce St, New York, NY 10014, USA"
Common Ground Bar,BB3,Ground,No,Yes,10014.0,,http://commongroundnyc.com/,New York Hitlist,0.0,0,0.0,0.0,0.0,0.0,1.0,,"63 Gansevoort St, New York, NY 10014, USA"
Do Not Feed Alligators,BB2,Alligators,No,Yes,10014.0,,http://dnfa.nyc/,New York Hitlist,0.0,0,0.0,0.0,0.0,0.0,1.0,,"337 Bleecker St, New York, NY 10014, USA"
I Sodi,BB2,I Sodi,No,Yes,10014.0,(212) 414-5774,http://www.isodinyc.com/,Eater,0.0,0,0.0,0.0,0.0,0.0,1.0,,"314 Bleecker St, New York, NY 10014, USA"
LoveMama,BB2,LoveMama,No,No,,,http://lovemamanyc.com,NYC Hitlist,0.0,#REF!,0.0,0.0,0.0,1.0,,,"174 2nd Ave, New York, NY 10003, USA"
Jack's Wife Freda - West Village,BB1,Freda,No,Yes,10014.0,,http://jackswifefreda.com/,New York Hitlist,0.0,0,0.0,0.0,0.0,0.0,1.0,,"50 Carmine St, New York, NY 10014, USA"
Thursday Kitchen,BB2,Thursday,No,No,,,https://thursdaykitchen.com,NYC Hitlist,0.0,#REF!,0.0,0.0,0.0,1.0,,,"424 E 9th St, New York, NY 10009, USA"
Katana Kitten,BB3,Katana,No,Yes,10014.0,,http://www.katanakitten.com/,New York Hitlist,0.0,0,0.0,0.0,0.0,0.0,1.0,,"531 Hudson St, New York, NY 10014, USA"
King,BB2,King,No,Yes,10014.0,,http://www.kingrestaurant.nyc/,New York Hitlist,0.0,0,0.0,0.0,0.0,0.0,1.0,,"New York, NY, USA"
L'Artusi,BB2,Artusi,No,Yes,10014.0,,http://lartusi.com/,New York Hitlist,0.0,0,0.0,0.0,0.0,0.0,1.0,,"228 W 10th St, New York, NY 10014, USA"
Little Owl,BB1,Owl,No,Yes,10014.0,,https://www.thelittleowlnyc.com/,New York Hitlist,0.0,0,0.0,0.0,0.0,0.0,1.0,,"90 Bedford St, New York, NY 10014, USA"
Market Table,BB1,Table,No,Yes,10014.0,,https://www.markettablenyc.com/,New York Hitlist,0.0,0,0.0,0.0,0.0,0.0,1.0,,"54 Carmine St, New York, NY 10014, USA"
Numero 28 Pizzeria,BB2,Numero,No,Yes,10014.0,,https://www.numero28pizzerianewyork.com/?utm_source=gbp,New York Hitlist,0.0,0,0.0,0.0,0.0,0.0,1.0,,"1431 1st Ave., New York, NY 10021, USA"
Osteria Carlina West Village,BB2,Carlina,No,Yes,10014.0,,http://www.osteriacarlina.com/,New York Hitlist,0.0,0,0.0,0.0,0.0,0.0,1.0,,"455 Hudson St, New York, NY 10014, USA"
Pastis,BB1,Pastis,No,Yes,10014.0,,https://pastisnyc.com/?utm_source=Google%20My%20Business,New York Hitlist,0.0,0,0.0,0.0,0.0,0.0,1.0,,"52 Gansevoort St, New York, NY 10014, USA"
Poulet Sans Tete,BB2,Poulet,No,Yes,10014.0,,http://www.pouletsanstete.com/,New York Hitlist,0.0,0,0.0,0.0,0.0,0.0,1.0,,"590 Amsterdam Ave, New York, NY 10024, USA"
Sushi Nakazawa,BB1,Sushi Nakazawa,No,Yes,10014.0,,http://sushinakazawa.com/,New York Hitlist,0.0,0,0.0,0.0,0.0,0.0,1.0,,"23 Commerce St, New York, NY 10014, USA"
La Contenta,BB2,Contenta,No,No,,,http://lacontentanyc.com/,NYC Hitlist,0.0,#REF!,0.0,0.0,0.0,1.0,,,"La Contenta, New York, NY 10002, USA"
The Clam,BB1,The Clam,No,Yes,10014.0,,https://www.theclamnyc.com/,New York Hitlist,0.0,0,0.0,0.0,0.0,0.0,1.0,,"420 Hudson St, New York, NY 10014, USA"
The Mary Lane,BB1,Mary Lane,No,Yes,10014.0,,https://www.themarylanenyc.com/,New York Hitlist,0.0,0,0.0,0.0,0.0,0.0,1.0,,"99 Bank St, New York, NY 10014, USA"
Via Carota,BB1,Via Carota,No,Yes,10014.0,Not Available,http://viacarota.com/,Eater,0.0,0,0.0,0.0,0.0,0.0,1.0,,"51 Grove St, New York, NY 10014, USA"
Amano Cafe,BB2,Amano,No,No,10014.0,,http://www.amano-cafe.com/,New York Hitlist,0.0,0,0.0,0.0,0.0,0.0,1.0,,"172 West 4th Street, New York, NY 10014, USA"
Angel’s Share,BB2,Angel's,No,No,10014.0,,http://www.angelssharenyc.com/,New York Hitlist,0.0,0,0.0,0.0,0.0,0.0,1.0,,"45 Grove St, New York, NY 10014, USA"
Anton's,BB1,Anton's,No,No,10014.0,,https://www.antonsnyc.com/,Toast,0.0,0,0.0,0.0,0.0,0.0,1.0,,"570 Hudson St, New York, NY 10014, USA"
Art Bar,BB3,Art Bar,No,No,10014.0,,https://www.artbar.com/,New York Hitlist,0.0,0,0.0,0.0,0.0,0.0,1.0,,"52 8th Ave, New York, NY 10014, USA"
Automatic Slim’s,BB3,Slim's,No,No,10014.0,,https://www.automaticslimsnyc.com/,New York Hitlist,0.0,0,0.0,0.0,0.0,0.0,1.0,,"733 Washington St, New York, NY 10014, USA"
Aux Merveilleux de Fred,BB2,Merveilleux,No,No,10014.0,,http://www.marvelousbyfred.com/,New York Hitlist,0.0,0,0.0,0.0,0.0,0.0,1.0,,"New York, NY, USA"
Giano Restaurant,BB1,Giano,No,No,,,http://www.gianonyc.com/,NYC Hitlist,0.0,#REF!,0.0,0.0,0.0,1.0,,,"126 E 7th St, New York, NY 10009, USA"
Temakase,BB2,Temakase,No,No,,,http://www.temakaseny.com,NYC Hitlist,0.0,#REF!,0.0,0.0,0.0,1.0,,,"157 2nd Ave, New York, NY 10003, USA"
Bar Pisellino,BB3,Pisellino,No,No,10014.0,,http://www.barpisellino.com/,New York Hitlist,0.0,0,0.0,0.0,0.0,0.0,1.0,,"52 Grove Street, 7th Ave S at, New York, NY 10014, USA"
Barachou West Village,BB2,Barachou,No,No,10014.0,,http://barachou.com/,New York Hitlist,0.0,0,0.0,0.0,0.0,0.0,1.0,,"15 8th Ave, New York, NY 10014, USA"
Blackstone Coffee Roaster,BB2,Blackstone,No,No,10014.0,,,New York Hitlist,0.0,0,0.0,0.0,0.0,0.0,1.0,,"502 Hudson St, New York, NY 10014, USA"
Bleecker Street Pizza,BB2,Bleecker,No,No,10014.0,,https://bleeckerstreetpizza.com/,New York Hitlist,0.0,0,0.0,0.0,0.0,0.0,1.0,,"69 7th Ave S, New York, NY 10014, USA"
Blind Tiger,BB2,Tiger,No,No,10014.0,,http://www.blindtigeralehouse.com/,New York Hitlist,0.0,0,0.0,0.0,0.0,0.0,1.0,,"281 Bleecker St, New York, NY 10014, USA"
BombayBlue Indian Bistro,BB1,BombayBlue,No,No,10014.0,,bombaybistros.com,Toast,0.0,0,0.0,0.0,0.0,0.0,1.0,,"247 Jericho Turnpike, New Hyde Park, NY 11040, USA"
Boucherie,BB1,Boucherie,No,No,10014.0,,https://www.boucherieus.com/,Toast,0.0,0,0.0,0.0,0.0,0.0,1.0,,"New York, NY, USA"
Boucherie West Village,BB1,Boucherie,No,No,10014.0,,https://www.boucherieus.com/west-village-menus/,New York Hitlist,0.0,0,0.0,0.0,0.0,0.0,1.0,,"99 7th Ave S, New York, NY 10014, USA"
Café Kitsuné West Village,BB2,Kitsuné,No,No,10014.0,,http://www.cafekitsune.com/,New York Hitlist,0.0,0,0.0,0.0,0.0,0.0,1.0,,"550 Hudson St, New York, NY 10014, USA"
Cafe Luna,BB2,Luna,No,No,10014.0,,http://www.cafelunanewyork.com/,New York Hitlist,0.0,0,0.0,0.0,0.0,0.0,1.0,,"1300 Hylan Blvd, Staten Island, NY 10305, USA"
Cafe Panino Mucho Giusto,BB2,Panino,No,No,10014.0,(212) 229-2799,https://www.cafepaninonyc.com/,Eater,0.0,0,0.0,0.0,0.0,0.0,1.0,,"551 Hudson St No 8, New York, NY 10014, USA"
Calientes,BB1,Calientes,No,No,10014.0,,calientecabco.com,Toast,0.0,0,0.0,0.0,0.0,0.0,1.0,,"New York, NY, USA"
Canto Café,BB2,Café,No,No,10014.0,,https://www.cantonyc.com/,New York Hitlist,0.0,0,0.0,0.0,0.0,0.0,1.0,,"East Store, 117 Perry St, New York, NY 10014, USA"
Canto West Village,BB1,Canto,No,No,10014.0,,cantonyc.com,Toast,0.0,0,0.0,0.0,0.0,0.0,1.0,,"117 Perry St, New York, NY 10014, USA"
Sunny and Annie’s,BB2,Annie's,No,No,,,,NYC Hitlist,0.0,#REF!,0.0,0.0,0.0,1.0,,,"94 Avenue B, New York, NY 10009, USA"
Coarse NY,CLOSED,Coarse,No,No,10014.0,,http://coarsenyc.net/,New York Hitlist,0.0,0,0.0,0.0,0.0,0.0,1.0,,"306 W 13th St, New York, NY 10014, USA"
Cones Artisanal Ice Cream Since 1998,BB2,Cones,No,No,10014.0,,https://www.facebook.com/ConesNYC/,New York Hitlist,0.0,0,0.0,0.0,0.0,0.0,1.0,,"15 Sylvan St, Rutherford, NJ 07070, USA"
Corner Bistro,BB2,Corner Bistro,No,No,10014.0,,http://www.cornerbistrony.com/,New York Hitlist,0.0,0,0.0,0.0,0.0,0.0,1.0,,"New York, NY, USA"
Daily Provisions,BB1,Daily Provisions,No,No,10014.0,,https://www.dailyprovisionsnyc.com/location/west-village/?utm_source=GoogleBusinessProfile,New York Hitlist,0.0,0,0.0,0.0,0.0,0.0,1.0,,"New York, NY, USA"
Dante West Village,BB2,Dante,No,No,10014.0,,https://www.dante-nyc.com/wv/,New York Hitlist,0.0,0,0.0,0.0,0.0,0.0,1.0,,"551 Hudson St, New York, NY 10014, USA"
Delice & Sarrasin,BB1,Sarrasin,No,No,10014.0,,http://delicesarrasin.com/,New York Hitlist,0.0,0,0.0,0.0,0.0,0.0,1.0,,"178 W Houston St, New York, NY 10014, USA"
Demo,BB1,Demo,No,No,10014.0,Not Available,Not Available,Eater,0.0,0,0.0,0.0,0.0,0.0,1.0,,"New York, NY, USA"
Ye’s Apothecary,BB2,Apothecary,No,No,,,https://yes-apothecary.club,NYC Hitlist,0.0,#REF!,0.0,0.0,0.0,1.0,,,"119 Orchard St, New York, NY 10002, USA"
Do Not Disturb,BB1,Disturb,No,No,10014.0,,http://www.dnd-nyc.com/,New York Hitlist,0.0,0,0.0,0.0,0.0,0.0,1.0,,"285 W 12th St, New York, NY 10014, USA"
El Jalapeño Truck,BB3,Jalapeño,No,No,10014.0,(347) 697-0081,Not Available,Eater,0.0,0,0.0,0.0,0.0,0.0,1.0,,"72 Grove St, New York, NY 10014, USA"
Entwine Cocktail Bar,BB3,Entwine,No,No,10014.0,,http://www.entwinenyc.com/,New York Hitlist,0.0,0,0.0,0.0,0.0,0.0,1.0,,"765 Washington St, New York, NY 10014, USA"
Gelateria Gentile - West Village,BB2,Gentile,No,No,10014.0,,http://www.gelateriagentile.com/en/,New York Hitlist,0.0,0,0.0,0.0,0.0,0.0,1.0,,"43 8th Ave, New York, NY 10014, USA"
Hudson Clearwater,BB2,Clearwater,No,No,10014.0,,http://www.hudsonclearwater.com/,New York Hitlist,0.0,0,0.0,0.0,0.0,0.0,1.0,,"447 Hudson St, New York, NY 10014, USA"
Hudson Hound,BB3,Hound,No,No,10014.0,,http://hudsonhoundnyc.com/,New York Hitlist,0.0,0,0.0,0.0,0.0,0.0,1.0,,"575 Hudson St, New York, NY 10014, USA"
Bar Verde,BB1,Verde,No,No,,,https://www.barverdenyc.com,NYC Hitlist,0.0,#REF!,0.0,0.0,0.0,1.0,,,"65 2nd Ave, New York, NY 10003, USA"
Joe's Pizza,BB2,Joe's Pizza,No,No,10014.0,(212) 366-1182,http://www.joespizzanyc.com/,Eater,0.0,0,0.0,0.0,0.0,0.0,1.0,,"1435 Broadway, New York, NY 10018, USA"
Kimura,BB1,Kimura,No,No,,,https://www.kimuranyc.com,NYC Hitlist,0.0,#REF!,0.0,0.0,0.0,1.0,,,"31 St Marks Pl, New York, NY 10003, USA"
John's of Bleecker Street,BB1,Bleecker Street,No,No,10014.0,(212) 243-1680,http://johnsofbleecker.com/,Eater,0.0,0,0.0,0.0,0.0,0.0,1.0,,"278 Bleecker St, New York, NY 10014, USA"
Kogane Ramen,BB1,Kogane,No,No,10014.0,,https://www.koganeramenny.com/,New York Hitlist,0.0,0,0.0,0.0,0.0,0.0,1.0,,"76 Henry St, Brooklyn, NY 11201, USA"
L'Accolade,BB3,Accolade,No,No,10014.0,,http://www.accolade-ny.com/,New York Hitlist,0.0,0,0.0,0.0,0.0,0.0,1.0,,"302 Bleecker St, New York, NY 10014, USA"
La Bonbonniere (Cash Only),BB2,Bonbonniere,No,No,10014.0,,http://www.instagram.com/labonbonnierenyc,New York Hitlist,0.0,0,0.0,0.0,0.0,0.0,1.0,,"28 8th Ave, New York, NY 10014, USA"
Risotteria Melotti NYC,BB2,Melotti,No,No,,,http://www.risotteriamelottinyc.com/,NYC Hitlist,0.0,#REF!,0.0,0.0,0.0,1.0,,,"309 E 5th St, New York, NY 10003, USA"
Le B.,BB3,B.,No,No,10014.0,Not Available,https://lebnyc.com/,Eater,0.0,0,0.0,0.0,0.0,0.0,1.0,,"283 W 12th St, New York, NY 10014, USA"
DokoDemo,BB2,DokoDemo,No,No,,,https://www.dokodemonyc.com,NYC Hitlist,0.0,#REF!,0.0,0.0,0.0,1.0,,,"89 E 4th St, New York, NY 10003, USA"
Le Gigot,BB3,Gigot,No,No,10014.0,,http://legigotrestaurant.com/,New York Hitlist,0.0,0,0.0,0.0,0.0,0.0,1.0,,"18 Cornelia St #1, New York, NY 10014, USA"
Dim Sum Palace,BB2,Palace,No,No,,,https://www.dimsumpalace.com,NYC Hitlist,1.0,#REF!,0.0,0.0,1.0,1.0,,Multiple Locations,"Dim Sum Palace, New York, NY 10036, USA"
Left Bank,BB2,Left Bank,No,No,10014.0,,https://www.leftbanknewyork.com/,New York Hitlist,0.0,0,0.0,0.0,0.0,0.0,1.0,,"New York, NY, USA"
Leitao,BB1,Leitao,No,No,10014.0,,http://www.leitaonyc.com/,New York Hitlist,0.0,0,0.0,0.0,0.0,0.0,1.0,,"547 Hudson St, New York, NY 10014, USA"
LELABAR,BB3,LELABAR,No,No,10014.0,,http://www.lelabar.com/,New York Hitlist,0.0,0,0.0,0.0,0.0,0.0,1.0,,"422 Hudson St, New York, NY 10014, USA"
Little Branch,BB2,Little Branch,No,No,10014.0,,,New York Hitlist,0.0,0,0.0,0.0,0.0,0.0,1.0,,"20 7th Ave S, New York, NY 10014, USA"
Malaparte,BB2,Malaparte,No,No,10014.0,,http://www.malapartenyc.com/,New York Hitlist,0.0,0,0.0,0.0,0.0,0.0,1.0,,"753 Washington St, New York, NY 10014, USA"
YUBU,BB2,YUBU,No,No,,,http://www.yubu.nyc,NYC Hitlist,0.0,#REF!,0.0,0.0,0.0,1.0,,,"New York, NY, USA"
Marie Blachère Bakery & Café,BB2,Blachère,No,No,10014.0,,https://www.marieblachereus.com/,New York Hitlist,0.0,0,0.0,0.0,0.0,0.0,1.0,,"301-303 6th Ave, New York, NY 10014, USA"
Marie's Crisis Café,BB2,Crisis,No,No,10014.0,,http://www.mariescrisiscafe.com/,New York Hitlist,0.0,0,0.0,0.0,0.0,0.0,1.0,,"59 Grove St, New York, NY 10014, USA"
McNulty's Tea & Coffee Co,BB2,McNulty's,No,No,10014.0,,http://www.mcnultys.com/,New York Hitlist,0.0,0,0.0,0.0,0.0,0.0,1.0,,"109 Christopher St, New York, NY 10014, USA"
Il Posto Accanto,BB2,Accanto,No,No,,,http://www.ilpostoaccantonyc.com,NYC Hitlist,0.0,#REF!,0.0,0.0,0.0,1.0,,,"190 E 2nd St, New York, NY 10009, USA"
Trapizzino,BB1,Trapizzino,No,No,,,http://trapizzinousa.com,NYC Hitlist,0.0,#REF!,0.0,0.0,0.0,1.0,,,"144 Orchard St, New York, NY 10002, USA"
Merriweather Coffee + Kitchen,BB2,Merriweather,No,No,10014.0,,http://merriweathernyc.com/,New York Hitlist,0.0,0,0.0,0.0,0.0,0.0,1.0,,"428 Hudson St, New York, NY 10014, USA"
Móle Mexican Bar & Grill - West Village,BB3,Móle,No,No,10014.0,,http://www.molenyc.com/,New York Hitlist,0.0,0,0.0,0.0,0.0,0.0,1.0,,"57 Jane St #5131, New York, NY 10014, USA"
Molly's Cupcakes,BB2,Molly's,No,No,10014.0,,http://mollyscupcakes.com/,New York Hitlist,0.0,0,0.0,0.0,0.0,0.0,1.0,,"228 Bleecker St, New York, NY 10014, USA"
Morandi,BB1,Morandi,No,No,10014.0,(212) 627-7575,http://www.morandiny.com/,Eater,0.0,0,0.0,0.0,0.0,0.0,1.0,,"211 Waverly Pl, New York, NY 10014, USA"
Moustache Pitza,BB3,Moustache,No,No,10014.0,(212) 229-2220,http://moustachepitza.com/,Eater,0.0,0,0.0,0.0,0.0,0.0,1.0,,"29 7th Ave S, New York, NY 10014, USA"
Gazab,BB1,Gazab,No,No,,,http://gazabnyc.com,NYC Hitlist,0.0,#REF!,0.0,0.0,0.0,1.0,,,"179 Essex St, New York, NY 10002, USA"
Aoi Kitchen,BB1,Aoi,No,No,,,http://www.aoikitchen.com,NYC Hitlist,0.0,#REF!,0.0,0.0,0.0,1.0,,,"320 E 6th St, New York, NY 10003, USA"
Olio e Più,BB1,Olio,No,No,10014.0,,https://www.olioepiu.com/,New York Hitlist,0.0,0,0.0,0.0,0.0,0.0,1.0,,"3 Greenwich Ave, New York, NY 10014, USA"
Omakase room by Maaser,BB1,Omakase room,No,No,10014.0,,https://omakaseroombymaaser.com/,New York Hitlist,0.0,0,0.0,0.0,0.0,0.0,1.0,,"321 Bleecker St, New York, NY 10014, USA"
Omakase Room by Mitsu,BB1,Omakase room,No,No,10014.0,,https://www.washokurooms.com/,New York Hitlist,0.0,0,0.0,0.0,0.0,0.0,1.0,,"14 Christopher St Lower Level, New York, NY 10014, USA"
Pasticceria Rocco,BB2,Pasticceria,No,No,10014.0,,http://pasticceriarocco.com/,New York Hitlist,0.0,0,0.0,0.0,0.0,0.0,1.0,,"243 Bleecker St #4438, New York, NY 10014, USA"
Marufuku Ramen - New York,BB1,Marufuku,No,No,,,https://www.marufukuramen.com/eastvillage,NYC Hitlist,0.0,#REF!,0.0,0.0,0.0,1.0,,,"92 2nd Ave, New York, NY 10003, USA"
Patisserie Claude,BB2,Patisserie Claude,No,No,10014.0,,,New York Hitlist,0.0,0,0.0,0.0,0.0,0.0,1.0,,"187 West 4th Street, New York, NY 10014, USA"
Perry St,BB1,Perry St,No,No,10014.0,(212) 352-1900,http://www.perrystrestaurant.com/,Eater,0.0,0,0.0,0.0,0.0,0.0,1.0,,"Perry St, New York, NY 10014, USA"
Petite Boucherie,BB1,Petite,No,No,10014.0,,https://www.boucherieus.com/,New York Hitlist,0.0,0,0.0,0.0,0.0,0.0,1.0,,"First Floor, 14 Christopher St, New York, NY 10014, USA"
Petrossian Boutique,BB2,Petrossian,No,No,10014.0,,petrossian.com,Toast,0.0,0,0.0,0.0,0.0,0.0,1.0,,"419 W 13th St, New York, NY 10014, USA"
Lava Shawarma,BB2,Lava,No,No,,,https://www.lavashawarma.com,NYC Hitlist,0.0,#REF!,0.0,0.0,0.0,1.0,,,"226 Thompson St, New York, NY 10012, USA"
Poke Rice,BB2,Poke,No,No,10014.0,,https://poke-rice.business.site/,New York Hitlist,0.0,0,0.0,0.0,0.0,0.0,1.0,,"162 West 4th Street, New York, NY 10014, USA"
Nón Lá,BB1,Nón,No,No,,,,NYC Hitlist,0.0,#REF!,0.0,0.0,0.0,1.0,,,"128 E 4th St, New York, NY 10003, USA"
Rafele,BB1,Rafele,No,No,10014.0,,http://www.rafele.com/,New York Hitlist,0.0,0,0.0,0.0,0.0,0.0,1.0,,"29 A 7th Ave S, New York, NY 10014, USA"
Little Kirin,BB2,Kirin,No,No,,,https://littlekirin.com,NYC Hitlist,0.0,#REF!,0.0,0.0,0.0,1.0,,,"81 St Marks Pl, New York, NY 10003, USA"
Ramen DANBO West Village,BB2,DANBO,No,No,10014.0,,https://ramendanbo.com/,New York Hitlist,0.0,0,0.0,0.0,0.0,0.0,1.0,,"48 Carmine St, New York, NY 10014, USA"
RH Rooftop Restaurant New York,BB1,RH Rooftop,No,No,10014.0,,http://www.rh.com/newyork/restaurant,New York Hitlist,0.0,0,0.0,0.0,0.0,0.0,1.0,,"9 9th Ave, New York, NY 10014, USA"
Roey's,BB1,Roey's,No,No,10014.0,,https://www.roeysnyc.com/contact/,Toast,0.0,0,0.0,0.0,0.0,0.0,1.0,,"1 Perry St, New York, NY 10014, USA"
Rosecrans Florist & Cafe,BB2,Rosecrans,No,No,10014.0,,,New York Hitlist,0.0,0,0.0,0.0,0.0,0.0,1.0,,"7 Greenwich Ave, New York, NY 10014, USA"
Ruby's Cafe - West Village,,Ruby's,No,No,10014.0,,https://www.rubyscafe.com/,New York Hitlist,0.0,0,0.0,0.0,0.0,0.0,1.0,,"225 West 4th Street, New York, NY 10014, USA"
Sabor Argentino NYC,BB2,Sabor,No,No,10014.0,,http://www.saborargentinonyc.com/,New York Hitlist,0.0,0,0.0,0.0,0.0,0.0,1.0,,"57 7th Ave S, New York, NY 10014, USA"
Saishin,BB3,Saishin,No,No,10014.0,(212) 206-6700,http://www.gansevoorthotelgroup.com/gansevoort-meatpacking-nyc/eat-drink/saishin-by-kissaki,Eater,0.0,0,0.0,0.0,0.0,0.0,1.0,,"18 9th Ave, New York, NY 10014, USA"
San Sabino,BB2,Sabino,No,No,10014.0,Not Available,https://www.sansabinonyc.com/,Eater,0.0,0,0.0,0.0,0.0,0.0,1.0,,"113 Greenwich Ave, New York, NY 10014, USA"
Salma,BB1,Salma,No,No,,,http://salmaeastvillage.com,NYC Hitlist,0.0,#REF!,0.0,0.0,0.0,1.0,,,"New York, NY, USA"
Sanpanino,BB2,Sanpanino,No,No,10014.0,,http://www.sanpanino.com/,New York Hitlist,0.0,0,0.0,0.0,0.0,0.0,1.0,,"187 State St, Brooklyn, NY 11201, USA"
Sevilla,BB1,Sevilla,No,No,10014.0,(212) 929-3189,http://sevillarestaurantandbar.com,Eater,0.0,0,0.0,0.0,0.0,0.0,1.0,,"New York, NY, USA"
Smalls Jazz Club,BB2,Smalls,No,No,10014.0,,http://www.smallslive.com/,New York Hitlist,0.0,0,0.0,0.0,0.0,0.0,1.0,,"183 W 10th St, New York, NY 10014, USA"
Sogno Toscano,shop,Sogno,No,No,10014.0,,https://sognotoscano.com/,Toast,0.0,0,0.0,0.0,0.0,0.0,1.0,,"508 W 28th St, New York, NY 10001, USA"
Thirteen Water,BB2,Thirteen,No,No,,,https://www.thirteenwater.com,NYC Hitlist,0.0,#REF!,0.0,0.0,0.0,1.0,,,"208 E 7th St, New York, NY 10009, USA"
Sogno Toscano Market & Wine Bar,BB2,Sogno,No,No,10014.0,,https://sognotoscano.com/,New York Hitlist,0.0,0,0.0,0.0,0.0,0.0,1.0,,"17 Perry St, New York, NY 10014, USA"
St Jardim,BB3,Jardim,No,No,10014.0,,http://www.stjardimnyc.com/,New York Hitlist,0.0,0,0.0,0.0,0.0,0.0,1.0,,"183 W 10th St, New York, NY 10014, USA"
The Gray Mare,BB3,Mare,No,No,,,http://www.thegraymarenyc.com,NYC Hitlist,0.0,#REF!,0.0,0.0,0.0,1.0,,,"61 2nd Ave, New York, NY 10003, USA"
Suprema Provisions,BB1,Suprema,No,No,10014.0,,https://www.supremanyc.com/,Toast,0.0,0,0.0,0.0,0.0,0.0,1.0,,"305 Bleecker St, New York, NY 10014, USA"
Taco Mahal,BB1,Taco Mahal,No,No,10014.0,,http://www.tacomahalnyc.com/menu,New York Hitlist,0.0,0,0.0,0.0,0.0,0.0,1.0,,"73 7th Ave S, New York, NY 10014, USA"
Taim,BB2,Taim,No,No,10014.0,,https://taimkitchen.com/pages/contact,Toast,0.0,0,0.0,0.0,0.0,0.0,1.0,,"New York, NY, USA"
Tartine,BB1,Tartine,No,No,10014.0,,http://www.tartine.nyc/,New York Hitlist,0.0,0,0.0,0.0,0.0,0.0,1.0,,"253 W 11th St, New York, NY 10014, USA"
Temperance Wine Bar,BB3,Temperance,No,No,10014.0,,http://temperancenyc.com/,New York Hitlist,0.0,0,0.0,0.0,0.0,0.0,1.0,,"40 Carmine St, New York, NY 10014, USA"
The Coppola Cafe,BB2,Coppola,No,No,10014.0,,,New York Hitlist,0.0,0,0.0,0.0,0.0,0.0,1.0,,"171 West 4th Street, New York, NY 10014, USA"
The Doughnut Project,CLOSED,The Doughnut Project,No,No,10014.0,,http://www.thedoughnutproject.com/,New York Hitlist,0.0,0,0.0,0.0,0.0,0.0,1.0,,"10 Morton St, New York, NY 10014, USA"
THE ELK,BB2,THE ELK,No,No,10014.0,,http://www.theelknyc.com/,New York Hitlist,0.0,0,0.0,0.0,0.0,0.0,1.0,,"New York, NY, USA"
The Noortwyck,BB1,Noortwyck,No,No,10014.0,(917) 261-2009,http://www.thenoortwyck.com/,Eater,0.0,0,0.0,0.0,0.0,0.0,1.0,,"289 Bleecker St, New York, NY 10014, USA"
Tio Pepe / The Taco Shop / Burrito Loco,BB2,Pepe,No,No,10014.0,,https://www.tiopepenyc.com/,Toast,0.0,0,0.0,0.0,0.0,0.0,1.0,,"166 West 4th Street, New York, NY 10014, USA"
Trattoria Pesce Pasta,BB2,Pesce,No,No,10014.0,,http://trattoria-pesce-pasta.business.site/,New York Hitlist,0.0,0,0.0,0.0,0.0,0.0,1.0,,"262 Bleecker St, New York, NY 10014, USA"
Jiang’s Kitchen,BB2,Jiang's,No,No,,,http://www.Jiangskitchenny.com,NYC Hitlist,0.0,#REF!,0.0,0.0,0.0,1.0,,,"65 St Marks Pl, New York, NY 10003, USA"
Baji Baji,BB2,Baji,No,No,,,,NYC Hitlist,0.0,#REF!,0.0,0.0,0.0,1.0,,,"145 1st Ave., New York, NY 10003, USA"
Two Boots West Village,BB2,Boots,No,No,10014.0,,http://www.twoboots.com/,New York Hitlist,0.0,0,0.0,0.0,0.0,0.0,1.0,,"101 7th Ave S, New York, NY 10014, USA"
Uncle Chop Chop,CLOSED,Uncle Chop Chop,No,No,10014.0,,,New York Hitlist,0.0,0,0.0,0.0,0.0,0.0,1.0,,"7 Cornelia St, New York, NY 10014, USA"
The Mayfly,BB1,Mayfly,No,No,,,http://www.themayflynyc.com,NYC Hitlist,0.0,#REF!,0.0,0.0,0.0,1.0,,,"269 E Houston St, New York, NY 10002, USA"
MayRee,BB2,MayRee,No,No,,,https://www.mayreenyc.com,NYC Hitlist,0.0,#REF!,0.0,0.0,0.0,1.0,,,"58 E 1st St, New York, NY 10003, USA"
Sami & Susu,BB1,Susu,No,No,,,http://samiandsusu.com,NYC Hitlist,0.0,#REF!,0.0,0.0,0.0,1.0,,,"190 Orchard St, New York, NY 10002, USA"
Venchi Chocolate Bleecker St,BB2,Venchi,No,No,10014.0,,http://us.venchi.com/,New York Hitlist,0.0,0,0.0,0.0,0.0,0.0,1.0,,"233 Bleecker St, New York, NY 10014, USA"
"Wogies Bar & Grill , West Village",BB3,Wogies,No,No,10014.0,,http://www.wogies.com/,New York Hitlist,0.0,0,0.0,0.0,0.0,0.0,1.0,,"39 Greenwich Ave, New York, NY 10014, USA"
WXOU Bar,BB3,WXOU,No,No,10014.0,,,New York Hitlist,0.0,0,0.0,0.0,0.0,0.0,1.0,,"558 Hudson St, New York, NY 10014, USA"
Le Rock,BB1,Le Rock,No,Yes,10111.0,(332) 258-8734,http://lerocknyc.com/,Eater,0.0,0,0.0,0.0,0.0,0.0,1.0,,"45 Rockefeller Plaza, New York, NY 10111, USA"
RYNN,,RYNN,No,No,,,https://www.rynnnyc.com,NYC Hitlist,0.0,#REF!,0.0,0.0,0.0,1.0,,,"309 E 5th St, New York, NY 10003, USA"
